start=new Date('2022-07-01T00:00:00.000Z').valueOf();
sats=[{"ECCENTRICITY":"0.00018060","REF_FRAME":"TEME","FILE":"3505946","CENTER_NAME":"EARTH","MEAN_ANOMALY":"298.3807","REV_AT_EPOCH":"9396","ARG_OF_PERICENTER":"61.7364","CLASSIFICATION_TYPE":"U","LAUNCH_DATE":"2020-10-18","RA_OF_ASC_NODE":"172.7771","MEAN_MOTION":"15.06389395","TLE_LINE2":"2 46674  53.0528 172.7771 0001806  61.7364 298.3807 15.06389395 93969","MEAN_MOTION_DDOT":"0.0000000000000","NORAD_CAT_ID":"46674","SITE":"AFETR","RCS_SIZE":"LARGE","SEMIMAJOR_AXIS":"6925.381","OBJECT_TYPE":"PAYLOAD","ELEMENT_SET_NO":"999","INCLINATION":"53.0528","EPOCH":"2022-06-30T17:54:45.332064","DECAY_DATE":null,"TLE_LINE1":"1 46674U 20073E   22181.74635801 -.00001301  00000-0 -68468-4 0  9990","PERIOD":"95.593","OBJECT_ID":"2020-073E","APOAPSIS":"548.497","COUNTRY_CODE":"US","MEAN_ELEMENT_THEORY":"SGP4","BSTAR":"-0.00006846800000","GP_ID":"207175929","OBJECT_NAME":"STARLINK-1718","EPHEMERIS_TYPE":"0","TIME_SYSTEM":"UTC","PERIAPSIS":"545.995","MEAN_MOTION_DOT":"-0.00001301"},{"MEAN_MOTION_DOT":"-0.00002657","GP_ID":"207176178","OBJECT_NAME":"STARLINK-1720","EPHEMERIS_TYPE":"0","TIME_SYSTEM":"UTC","PERIAPSIS":"545.853","COUNTRY_CODE":"US","MEAN_ELEMENT_THEORY":"SGP4","BSTAR":"-0.00015962000000","DECAY_DATE":null,"TLE_LINE1":"1 46675U 20073F   22181.67634286 -.00002657  00000-0 -15962-3 0  9994","PERIOD":"95.593","APOAPSIS":"548.697","OBJECT_ID":"2020-073F","INCLINATION":"53.0532","EPOCH":"2022-06-30T16:13:56.023104","ELEMENT_SET_NO":"999","SEMIMAJOR_AXIS":"6925.410","OBJECT_TYPE":"PAYLOAD","NORAD_CAT_ID":"46675","RCS_SIZE":"LARGE","SITE":"AFETR","MEAN_MOTION_DDOT":"0.0000000000000","LAUNCH_DATE":"2020-10-18","CLASSIFICATION_TYPE":"U","RA_OF_ASC_NODE":"173.0967","MEAN_MOTION":"15.06379880","TLE_LINE2":"2 46675  53.0532 173.0967 0002053  57.8769 302.2419 15.06379880 93957","REV_AT_EPOCH":"9395","ARG_OF_PERICENTER":"57.8769","REF_FRAME":"TEME","FILE":"3505946","CENTER_NAME":"EARTH","MEAN_ANOMALY":"302.2419","ECCENTRICITY":"0.00020530"},{"CLASSIFICATION_TYPE":"U","LAUNCH_DATE":"2020-10-18","RA_OF_ASC_NODE":"173.1013","MEAN_MOTION":"15.06392861","TLE_LINE2":"2 46677  53.0538 173.1013 0001982  54.6919 305.4255 15.06392861 93957","REV_AT_EPOCH":"9395","ARG_OF_PERICENTER":"54.6919","REF_FRAME":"TEME","FILE":"3505946","MEAN_ANOMALY":"305.4255","CENTER_NAME":"EARTH","ECCENTRICITY":"0.00019820","SEMIMAJOR_AXIS":"6925.370","OBJECT_TYPE":"PAYLOAD","NORAD_CAT_ID":"46677","RCS_SIZE":"LARGE","SITE":"AFETR","MEAN_MOTION_DDOT":"0.0000000000000","DECAY_DATE":null,"TLE_LINE1":"1 46677U 20073H   22181.67263836  .00000486  00000-0  51549-4 0  9993","PERIOD":"95.593","OBJECT_ID":"2020-073H","APOAPSIS":"548.608","INCLINATION":"53.0538","EPOCH":"2022-06-30T16:08:35.954304","ELEMENT_SET_NO":"999","MEAN_MOTION_DOT":"0.00000486","GP_ID":"207176930","TIME_SYSTEM":"UTC","EPHEMERIS_TYPE":"0","OBJECT_NAME":"STARLINK-1766","PERIAPSIS":"545.863","COUNTRY_CODE":"US","MEAN_ELEMENT_THEORY":"SGP4","BSTAR":"0.00005154900000"},{"ECCENTRICITY":"0.00019320","FILE":"3505946","REF_FRAME":"TEME","CENTER_NAME":"EARTH","MEAN_ANOMALY":"306.0125","ARG_OF_PERICENTER":"54.1043","REV_AT_EPOCH":"9422","LAUNCH_DATE":"2020-10-18","CLASSIFICATION_TYPE":"U","MEAN_MOTION":"15.06394706","TLE_LINE2":"2 46679  53.0534 153.3829 0001932  54.1043 306.0125 15.06394706 94222","RA_OF_ASC_NODE":"153.3829","MEAN_MOTION_DDOT":"0.0000000000000","NORAD_CAT_ID":"46679","SITE":"AFETR","RCS_SIZE":"LARGE","SEMIMAJOR_AXIS":"6925.365","OBJECT_TYPE":"PAYLOAD","ELEMENT_SET_NO":"999","INCLINATION":"53.0534","EPOCH":"2022-06-30T14:41:01.137408","TLE_LINE1":"1 46679U 20073K   22181.61181872 -.00000989  00000-0 -47511-4 0  9992","DECAY_DATE":null,"APOAPSIS":"548.568","OBJECT_ID":"2020-073K","PERIOD":"95.592","COUNTRY_CODE":"US","BSTAR":"-0.00004751100000","MEAN_ELEMENT_THEORY":"SGP4","EPHEMERIS_TYPE":"0","TIME_SYSTEM":"UTC","OBJECT_NAME":"STARLINK-1773","GP_ID":"207176679","PERIAPSIS":"545.892","MEAN_MOTION_DOT":"-0.00000989"},{"NORAD_CAT_ID":"46680","RCS_SIZE":"LARGE","SITE":"AFETR","SEMIMAJOR_AXIS":"6925.385","OBJECT_TYPE":"PAYLOAD","MEAN_MOTION_DDOT":"0.0000000000000","ARG_OF_PERICENTER":"55.6723","REV_AT_EPOCH":"9375","LAUNCH_DATE":"2020-10-18","CLASSIFICATION_TYPE":"U","MEAN_MOTION":"15.06388176","TLE_LINE2":"2 46680  53.0539 187.7801 0001632  55.6723 304.4420 15.06388176 93759","RA_OF_ASC_NODE":"187.7801","ECCENTRICITY":"0.00016320","FILE":"3505946","REF_FRAME":"TEME","CENTER_NAME":"EARTH","MEAN_ANOMALY":"304.4420","MEAN_MOTION_DOT":"-0.00001554","COUNTRY_CODE":"US","BSTAR":"-0.00008547600000","MEAN_ELEMENT_THEORY":"SGP4","OBJECT_NAME":"STARLINK-1774","EPHEMERIS_TYPE":"0","TIME_SYSTEM":"UTC","GP_ID":"207175430","PERIAPSIS":"546.120","TLE_LINE1":"1 46680U 20073L   22181.74681333 -.00001554  00000-0 -85476-4 0  9996","DECAY_DATE":null,"APOAPSIS":"548.380","OBJECT_ID":"2020-073L","PERIOD":"95.593","ELEMENT_SET_NO":"999","INCLINATION":"53.0539","EPOCH":"2022-06-30T17:55:24.671712"},{"CENTER_NAME":"EARTH","MEAN_ANOMALY":"310.2394","REF_FRAME":"TEME","FILE":"3505946","ECCENTRICITY":"0.00019530","RA_OF_ASC_NODE":"187.9014","MEAN_MOTION":"15.06395378","TLE_LINE2":"2 46681  53.0537 187.9014 0001953  49.8765 310.2394 15.06395378 93749","CLASSIFICATION_TYPE":"U","LAUNCH_DATE":"2020-10-18","REV_AT_EPOCH":"9374","ARG_OF_PERICENTER":"49.8765","MEAN_MOTION_DDOT":"0.0000000000000","OBJECT_TYPE":"PAYLOAD","SEMIMAJOR_AXIS":"6925.363","RCS_SIZE":"LARGE","SITE":"AFETR","NORAD_CAT_ID":"46681","EPOCH":"2022-06-30T17:12:57.223008","INCLINATION":"53.0537","ELEMENT_SET_NO":"999","PERIOD":"95.592","APOAPSIS":"548.580","OBJECT_ID":"2020-073M","DECAY_DATE":null,"TLE_LINE1":"1 46681U 20073M   22181.71732897  .00000425  00000-0  47425-4 0  9992","PERIAPSIS":"545.875","GP_ID":"207175680","OBJECT_NAME":"STARLINK-1775","EPHEMERIS_TYPE":"0","TIME_SYSTEM":"UTC","MEAN_ELEMENT_THEORY":"SGP4","BSTAR":"0.00004742500000","COUNTRY_CODE":"US","MEAN_MOTION_DOT":"0.00000425"},{"MEAN_MOTION_DDOT":"0.0000000000000","RCS_SIZE":"LARGE","SITE":"AFETR","NORAD_CAT_ID":"46682","OBJECT_TYPE":"PAYLOAD","SEMIMAJOR_AXIS":"6925.397","ECCENTRICITY":"0.00019660","CENTER_NAME":"EARTH","MEAN_ANOMALY":"310.5817","FILE":"3505946","REF_FRAME":"TEME","ARG_OF_PERICENTER":"49.5344","REV_AT_EPOCH":"9375","TLE_LINE2":"2 46682  53.0553 187.7854 0001966  49.5344 310.5817 15.06384339 93751","MEAN_MOTION":"15.06384339","RA_OF_ASC_NODE":"187.7854","LAUNCH_DATE":"2020-10-18","CLASSIFICATION_TYPE":"U","BSTAR":"0.00003827700000","MEAN_ELEMENT_THEORY":"SGP4","COUNTRY_CODE":"US","PERIAPSIS":"545.900","EPHEMERIS_TYPE":"0","OBJECT_NAME":"STARLINK-1776","TIME_SYSTEM":"UTC","GP_ID":"207176431","MEAN_MOTION_DOT":"0.00000288","ELEMENT_SET_NO":"999","EPOCH":"2022-06-30T17:50:08.336256","INCLINATION":"53.0553","OBJECT_ID":"2020-073N","APOAPSIS":"548.623","PERIOD":"95.593","TLE_LINE1":"1 46682U 20073N   22181.74315204  .00000288  00000-0  38277-4 0  9997","DECAY_DATE":null},{"MEAN_MOTION_DDOT":"0.0000000000000","RCS_SIZE":"LARGE","SITE":"AFETR","NORAD_CAT_ID":"46684","OBJECT_TYPE":"PAYLOAD","SEMIMAJOR_AXIS":"6925.332","ECCENTRICITY":"0.00014340","MEAN_ANOMALY":"287.6526","CENTER_NAME":"EARTH","FILE":"3505946","REF_FRAME":"TEME","ARG_OF_PERICENTER":"72.4620","REV_AT_EPOCH":"9395","TLE_LINE2":"2 46684  53.0555 173.1378 0001434  72.4620 287.6526 15.06405544 93952","MEAN_MOTION":"15.06405544","RA_OF_ASC_NODE":"173.1378","CLASSIFICATION_TYPE":"U","LAUNCH_DATE":"2020-10-18","BSTAR":"0.00004588500000","MEAN_ELEMENT_THEORY":"SGP4","COUNTRY_CODE":"US","PERIAPSIS":"546.203","TIME_SYSTEM":"UTC","EPHEMERIS_TYPE":"0","OBJECT_NAME":"STARLINK-1780","GP_ID":"207177179","MEAN_MOTION_DOT":"0.00000402","ELEMENT_SET_NO":"999","EPOCH":"2022-06-30T15:57:58.222944","INCLINATION":"53.0555","APOAPSIS":"548.190","OBJECT_ID":"2020-073Q","PERIOD":"95.592","TLE_LINE1":"1 46684U 20073Q   22181.66525721  .00000402  00000-0  45885-4 0  9998","DECAY_DATE":null},{"NORAD_CAT_ID":"46685","RCS_SIZE":"LARGE","SITE":"AFETR","SEMIMAJOR_AXIS":"6925.376","OBJECT_TYPE":"PAYLOAD","MEAN_MOTION_DDOT":"0.0000000000000","ARG_OF_PERICENTER":"61.8882","REV_AT_EPOCH":"9374","LAUNCH_DATE":"2020-10-18","CLASSIFICATION_TYPE":"U","MEAN_MOTION":"15.06391037","TLE_LINE2":"2 46685  53.0528 187.8797 0001765  61.8882 298.2285 15.06391037 93747","RA_OF_ASC_NODE":"187.8797","ECCENTRICITY":"0.00017650","FILE":"3505946","REF_FRAME":"TEME","MEAN_ANOMALY":"298.2285","CENTER_NAME":"EARTH","MEAN_MOTION_DOT":"0.00000545","COUNTRY_CODE":"US","BSTAR":"0.00005552100000","MEAN_ELEMENT_THEORY":"SGP4","OBJECT_NAME":"STARLINK-1781","EPHEMERIS_TYPE":"0","TIME_SYSTEM":"UTC","GP_ID":"207175930","PERIAPSIS":"546.019","TLE_LINE1":"1 46685U 20073R   22181.72006916  .00000545  00000-0  55521-4 0  9992","DECAY_DATE":null,"APOAPSIS":"548.463","OBJECT_ID":"2020-073R","PERIOD":"95.593","ELEMENT_SET_NO":"999","INCLINATION":"53.0528","EPOCH":"2022-06-30T17:16:53.975424"},{"TLE_LINE1":"1 46686U 20073S   22181.83063374 -.00000009  00000-0  18288-4 0  9991","DECAY_DATE":null,"OBJECT_ID":"2020-073S","APOAPSIS":"548.355","PERIOD":"95.592","INCLINATION":"53.0547","EPOCH":"2022-06-30T19:56:06.755136","ELEMENT_SET_NO":"999","MEAN_MOTION_DOT":"-0.00000009","OBJECT_NAME":"STARLINK-1783","EPHEMERIS_TYPE":"0","TIME_SYSTEM":"UTC","GP_ID":"207176179","PERIAPSIS":"546.042","COUNTRY_CODE":"US","BSTAR":"0.00001828800000","MEAN_ELEMENT_THEORY":"SGP4","CLASSIFICATION_TYPE":"U","LAUNCH_DATE":"2020-10-18","MEAN_MOTION":"15.06404826","TLE_LINE2":"2 46686  53.0547 187.3478 0001670  56.0691 304.0457 15.06404826 93769","RA_OF_ASC_NODE":"187.3478","ARG_OF_PERICENTER":"56.0691","REV_AT_EPOCH":"9376","FILE":"3505946","REF_FRAME":"TEME","CENTER_NAME":"EARTH","MEAN_ANOMALY":"304.0457","ECCENTRICITY":"0.00016700","SEMIMAJOR_AXIS":"6925.334","OBJECT_TYPE":"PAYLOAD","NORAD_CAT_ID":"46686","RCS_SIZE":"LARGE","SITE":"AFETR","MEAN_MOTION_DDOT":"0.0000000000000"}];
